[{"OBJECT_NAME":"LYNK TOWER 4","OBJECT_ID":"2023-001AB","EPOCH":"2026-03-09T16:15:30.644928","MEAN_MOTION":15.31819885,"ECCENTRICITY":0.00103213,"INCLINATION":97.3324,"RA_OF_ASC_NODE":128.594,"ARG_OF_PERICENTER":112.3386,"MEAN_ANOMALY":247.895,"EPHEMERIS_TYPE":0,"CLASSIFICATION_TYPE":"U","NORAD_CAT_ID":55034,"ELEMENT_SET_NO":999,"REV_AT_EPOCH":17658,"BSTAR":0.00030013829,"MEAN_MOTION_DOT":9.16e-5,"MEAN_MOTION_DDOT":0},{"OBJECT_NAME":"STARLINK-33765","OBJECT_ID":"2025-070P","EPOCH":"2026-03-09T13:10:35.540544","MEAN_MOTION":15.27581282,"ECCENTRICITY":9.3e-5,"INCLINATION":42.9956,"RA_OF_ASC_NODE":260.6993,"ARG_OF_PERICENTER":247.9852,"MEAN_ANOMALY":112.0901,"EPHEMERIS_TYPE":0,"CLASSIFICATION_TYPE":"U","NORAD_CAT_ID":63473,"ELEMENT_SET_NO":999,"REV_AT_EPOCH":5295,"BSTAR":0.00088911705,"MEAN_MOTION_DOT":0.00024286,"MEAN_MOTION_DDOT":0}]
