LYNK TOWER 4            
1 55034U 23001AB  26068.67743801  .00009160  00000+0  30014-3 0  9997
2 55034  97.3324 128.5940 0010321 112.3386 247.8950 15.31819885176588
STARLINK-33765          
1 63473U 25070P   26068.54902246  .00024286  00000+0  88912-3 0  9993
2 63473  42.9956 260.6993 0000930 247.9852 112.0901 15.27581282 52950
